[{"OBJECT_NAME":"KUIPER-00031","OBJECT_ID":"2025-088W","EPOCH":"2026-03-09T08:49:36.222240","MEAN_MOTION":14.83663511,"ECCENTRICITY":0.00020432,"INCLINATION":51.8994,"RA_OF_ASC_NODE":97.1214,"ARG_OF_PERICENTER":139.5452,"MEAN_ANOMALY":220.5664,"EPHEMERIS_TYPE":0,"CLASSIFICATION_TYPE":"U","NORAD_CAT_ID":63744,"ELEMENT_SET_NO":999,"REV_AT_EPOCH":4750,"BSTAR":0.00061482299,"MEAN_MOTION_DOT":4.901e-5,"MEAN_MOTION_DDOT":0},{"OBJECT_NAME":"SL-14 R\/B","OBJECT_ID":"1988-056B","EPOCH":"2026-03-09T22:09:02.841984","MEAN_MOTION":14.85107061,"ECCENTRICITY":0.00200259,"INCLINATION":82.5135,"RA_OF_ASC_NODE":224.3406,"ARG_OF_PERICENTER":136.9307,"MEAN_ANOMALY":223.348,"EPHEMERIS_TYPE":0,"CLASSIFICATION_TYPE":"U","NORAD_CAT_ID":19275,"ELEMENT_SET_NO":999,"REV_AT_EPOCH":1470,"BSTAR":8.8660519e-5,"MEAN_MOTION_DOT":7.85e-6,"MEAN_MOTION_DDOT":0}]
